CCSDS_OMM_VERS = 2.0
CREATION_DATE  = 
ORIGINATOR     = 

OBJECT_NAME    = STARLINK-35647
OBJECT_ID      = 2025-257J
CENTER_NAME    = EARTH
REF_FRAME      = TEME
TIME_SYSTEM    = UTC
MEAN_ELEMENT_THEORY = SGP/SGP4

EPOCH          = 2025-11-25T02:00:03.000384
MEAN_MOTION    = 15.68011240
ECCENTRICITY   = .0001417
INCLINATION    = 53.1597
RA_OF_ASC_NODE = 348.5341
ARG_OF_PERICENTER = 92.0335
MEAN_ANOMALY   = 88.1262

EPHEMERIS_TYPE = 0
CLASSIFICATION_TYPE = U
NORAD_CAT_ID   = 66388
ELEMENT_SET_NO = 999
REV_AT_EPOCH   = 365
BSTAR          = -.19457E-1
MEAN_MOTION_DOT = -.194443E-1
MEAN_MOTION_DDOT = 0

CCSDS_OMM_VERS = 2.0
CREATION_DATE  = 
ORIGINATOR     = 

OBJECT_NAME    = STARLINK-35694
OBJECT_ID      = 2025-257K
CENTER_NAME    = EARTH
REF_FRAME      = TEME
TIME_SYSTEM    = UTC
MEAN_ELEMENT_THEORY = SGP/SGP4

EPOCH          = 2025-11-25T02:00:03.000384
MEAN_MOTION    = 15.68012983
ECCENTRICITY   = .0001481
INCLINATION    = 53.1598
RA_OF_ASC_NODE = 348.5297
ARG_OF_PERICENTER = 90.6524
MEAN_ANOMALY   = 91.4231

EPHEMERIS_TYPE = 0
CLASSIFICATION_TYPE = U
NORAD_CAT_ID   = 66389
ELEMENT_SET_NO = 999
REV_AT_EPOCH   = 365
BSTAR          = -.1949E-1
MEAN_MOTION_DOT = -.1947462E-1
MEAN_MOTION_DDOT = 0

CCSDS_OMM_VERS = 2.0
CREATION_DATE  = 
ORIGINATOR     = 

OBJECT_NAME    = STARLINK-35665
OBJECT_ID      = 2025-257L
CENTER_NAME    = EARTH
REF_FRAME      = TEME
TIME_SYSTEM    = UTC
MEAN_ELEMENT_THEORY = SGP/SGP4

EPOCH          = 2025-11-25T02:00:03.000384
MEAN_MOTION    = 15.68015478
ECCENTRICITY   = .0001306
INCLINATION    = 53.1594
RA_OF_ASC_NODE = 348.4579
ARG_OF_PERICENTER = 89.8064
MEAN_ANOMALY   = 126.7710

EPHEMERIS_TYPE = 0
CLASSIFICATION_TYPE = U
NORAD_CAT_ID   = 66390
ELEMENT_SET_NO = 999
REV_AT_EPOCH   = 375
BSTAR          = -.19527E-1
MEAN_MOTION_DOT = -.1950776E-1
MEAN_MOTION_DDOT = 0

CCSDS_OMM_VERS = 2.0
CREATION_DATE  = 
ORIGINATOR     = 

OBJECT_NAME    = STARLINK-35656
OBJECT_ID      = 2025-257M
CENTER_NAME    = EARTH
REF_FRAME      = TEME
TIME_SYSTEM    = UTC
MEAN_ELEMENT_THEORY = SGP/SGP4

EPOCH          = 2025-11-25T02:00:03.000384
MEAN_MOTION    = 15.65974020
ECCENTRICITY   = .0001095
INCLINATION    = 53.1594
RA_OF_ASC_NODE = 348.1456
ARG_OF_PERICENTER = 90.5552
MEAN_ANOMALY   = 277.1833

EPHEMERIS_TYPE = 0
CLASSIFICATION_TYPE = U
NORAD_CAT_ID   = 66391
ELEMENT_SET_NO = 999
REV_AT_EPOCH   = 375
BSTAR          = -.23792E-1
MEAN_MOTION_DOT = -.2155021E-1
MEAN_MOTION_DDOT = 0

CCSDS_OMM_VERS = 2.0
CREATION_DATE  = 
ORIGINATOR     = 

OBJECT_NAME    = STARLINK-35671
OBJECT_ID      = 2025-257N
CENTER_NAME    = EARTH
REF_FRAME      = TEME
TIME_SYSTEM    = UTC
MEAN_ELEMENT_THEORY = SGP/SGP4

EPOCH          = 2025-11-25T02:00:03.000384
MEAN_MOTION    = 15.68009580
ECCENTRICITY   = .0001473
INCLINATION    = 53.1596
RA_OF_ASC_NODE = 348.5219
ARG_OF_PERICENTER = 93.7341
MEAN_ANOMALY   = 92.1777

EPHEMERIS_TYPE = 0
CLASSIFICATION_TYPE = U
NORAD_CAT_ID   = 66392
ELEMENT_SET_NO = 999
REV_AT_EPOCH   = 365
BSTAR          = -.19442E-1
MEAN_MOTION_DOT = -.1943003E-1
MEAN_MOTION_DDOT = 0

CCSDS_OMM_VERS = 2.0
CREATION_DATE  = 
ORIGINATOR     = 

OBJECT_NAME    = STARLINK-35652
OBJECT_ID      = 2025-257P
CENTER_NAME    = EARTH
REF_FRAME      = TEME
TIME_SYSTEM    = UTC
MEAN_ELEMENT_THEORY = SGP/SGP4

EPOCH          = 2025-11-25T02:00:03.000384
MEAN_MOTION    = 15.68010395
ECCENTRICITY   = .0001464
INCLINATION    = 53.1597
RA_OF_ASC_NODE = 348.5263
ARG_OF_PERICENTER = 89.0436
MEAN_ANOMALY   = 94.9509

EPHEMERIS_TYPE = 0
CLASSIFICATION_TYPE = U
NORAD_CAT_ID   = 66393
ELEMENT_SET_NO = 999
REV_AT_EPOCH   = 365
BSTAR          = -.19465E-1
MEAN_MOTION_DOT = -.1945073E-1
MEAN_MOTION_DDOT = 0

CCSDS_OMM_VERS = 2.0
CREATION_DATE  = 
ORIGINATOR     = 

OBJECT_NAME    = STARLINK-35672
OBJECT_ID      = 2025-257Q
CENTER_NAME    = EARTH
REF_FRAME      = TEME
TIME_SYSTEM    = UTC
MEAN_ELEMENT_THEORY = SGP/SGP4

EPOCH          = 2025-11-25T02:00:03.000384
MEAN_MOTION    = 15.68011680
ECCENTRICITY   = .0001391
INCLINATION    = 53.1598
RA_OF_ASC_NODE = 348.5178
ARG_OF_PERICENTER = 90.6600
MEAN_ANOMALY   = 97.1680

EPHEMERIS_TYPE = 0
CLASSIFICATION_TYPE = U
NORAD_CAT_ID   = 66394
ELEMENT_SET_NO = 999
REV_AT_EPOCH   = 365
BSTAR          = -.19485E-1
MEAN_MOTION_DOT = -.1946856E-1
MEAN_MOTION_DDOT = 0

CCSDS_OMM_VERS = 2.0
CREATION_DATE  = 
ORIGINATOR     = 

OBJECT_NAME    = STARLINK-35681
OBJECT_ID      = 2025-257R
CENTER_NAME    = EARTH
REF_FRAME      = TEME
TIME_SYSTEM    = UTC
MEAN_ELEMENT_THEORY = SGP/SGP4

EPOCH          = 2025-11-25T02:00:03.000384
MEAN_MOTION    = 15.68012680
ECCENTRICITY   = .000143
INCLINATION    = 53.1599
RA_OF_ASC_NODE = 348.5145
ARG_OF_PERICENTER = 91.9578
MEAN_ANOMALY   = 97.7868

EPHEMERIS_TYPE = 0
CLASSIFICATION_TYPE = U
NORAD_CAT_ID   = 66395
ELEMENT_SET_NO = 999
REV_AT_EPOCH   = 349
BSTAR          = -.19502E-1
MEAN_MOTION_DOT = -.1948446E-1
MEAN_MOTION_DDOT = 0

CCSDS_OMM_VERS = 2.0
CREATION_DATE  = 
ORIGINATOR     = 

OBJECT_NAME    = STARLINK-35669
OBJECT_ID      = 2025-257S
CENTER_NAME    = EARTH
REF_FRAME      = TEME
TIME_SYSTEM    = UTC
MEAN_ELEMENT_THEORY = SGP/SGP4

EPOCH          = 2025-11-25T02:00:03.000384
MEAN_MOTION    = 15.68010265
ECCENTRICITY   = .0001372
INCLINATION    = 53.1597
RA_OF_ASC_NODE = 348.5098
ARG_OF_PERICENTER = 98.0020
MEAN_ANOMALY   = 93.6637

EPHEMERIS_TYPE = 0
CLASSIFICATION_TYPE = U
NORAD_CAT_ID   = 66396
ELEMENT_SET_NO = 999
REV_AT_EPOCH   = 365
BSTAR          = -.19491E-1
MEAN_MOTION_DOT = -.1947259E-1
MEAN_MOTION_DDOT = 0

CCSDS_OMM_VERS = 2.0
CREATION_DATE  = 
ORIGINATOR     = 

OBJECT_NAME    = STARLINK-35510
OBJECT_ID      = 2025-257T
CENTER_NAME    = EARTH
REF_FRAME      = TEME
TIME_SYSTEM    = UTC
MEAN_ELEMENT_THEORY = SGP/SGP4

EPOCH          = 2025-11-25T02:00:03.000384
MEAN_MOTION    = 15.68013886
ECCENTRICITY   = .0001426
INCLINATION    = 53.1595
RA_OF_ASC_NODE = 348.5058
ARG_OF_PERICENTER = 94.8663
MEAN_ANOMALY   = 98.7123

EPHEMERIS_TYPE = 0
CLASSIFICATION_TYPE = U
NORAD_CAT_ID   = 66397
ELEMENT_SET_NO = 999
REV_AT_EPOCH   = 365
BSTAR          = -.19518E-1
MEAN_MOTION_DOT = -.1950012E-1
MEAN_MOTION_DDOT = 0

CCSDS_OMM_VERS = 2.0
CREATION_DATE  = 
ORIGINATOR     = 

OBJECT_NAME    = STARLINK-35642
OBJECT_ID      = 2025-257U
CENTER_NAME    = EARTH
REF_FRAME      = TEME
TIME_SYSTEM    = UTC
MEAN_ELEMENT_THEORY = SGP/SGP4

EPOCH          = 2025-11-25T02:00:03.000384
MEAN_MOTION    = 15.68012504
ECCENTRICITY   = .0001343
INCLINATION    = 53.1597
RA_OF_ASC_NODE = 348.5016
ARG_OF_PERICENTER = 92.6391
MEAN_ANOMALY   = 102.8571

EPHEMERIS_TYPE = 0
CLASSIFICATION_TYPE = U
NORAD_CAT_ID   = 66398
ELEMENT_SET_NO = 999
REV_AT_EPOCH   = 365
BSTAR          = -.19508E-1
MEAN_MOTION_DOT = -.1948901E-1
MEAN_MOTION_DDOT = 0

CCSDS_OMM_VERS = 2.0
CREATION_DATE  = 
ORIGINATOR     = 

OBJECT_NAME    = STARLINK-35657
OBJECT_ID      = 2025-257V
CENTER_NAME    = EARTH
REF_FRAME      = TEME
TIME_SYSTEM    = UTC
MEAN_ELEMENT_THEORY = SGP/SGP4

EPOCH          = 2025-11-25T02:00:03.000384
MEAN_MOTION    = 15.68013894
ECCENTRICITY   = .0001495
INCLINATION    = 53.1598
RA_OF_ASC_NODE = 348.4977
ARG_OF_PERICENTER = 93.3223
MEAN_ANOMALY   = 104.0864

EPHEMERIS_TYPE = 0
CLASSIFICATION_TYPE = U
NORAD_CAT_ID   = 66399
ELEMENT_SET_NO = 999
REV_AT_EPOCH   = 365
BSTAR          = -.19488E-1
MEAN_MOTION_DOT = -.1947417E-1
MEAN_MOTION_DDOT = 0

