STARLINK-35647          
1 66388U 25257J   25329.08336806 -.01944430  00000+0 -19457-1 0  9990
2 66388  53.1597 348.5341 0001417  92.0335  88.1262 15.68011240  3655
STARLINK-35694          
1 66389U 25257K   25329.08336806 -.01947462  00000+0 -19490-1 0  9996
2 66389  53.1598 348.5297 0001481  90.6524  91.4231 15.68012983  3650
STARLINK-35665          
1 66390U 25257L   25329.08336806 -.01950776  00000+0 -19527-1 0  9991
2 66390  53.1594 348.4579 0001306  89.8064 126.7710 15.68015478  3752
STARLINK-35656          
1 66391U 25257M   25329.08336806 -.02155021  00000+0 -23792-1 0  9992
2 66391  53.1594 348.1456 0001095  90.5552 277.1833 15.65974020  3751
STARLINK-35671          
1 66392U 25257N   25329.08336806 -.01943003  00000+0 -19442-1 0  9994
2 66392  53.1596 348.5219 0001473  93.7341  92.1777 15.68009580  3650
STARLINK-35652          
1 66393U 25257P   25329.08336806 -.01945073  00000+0 -19465-1 0  9999
2 66393  53.1597 348.5263 0001464  89.0436  94.9509 15.68010395  3653
STARLINK-35672          
1 66394U 25257Q   25329.08336806 -.01946856  00000+0 -19485-1 0  9992
2 66394  53.1598 348.5178 0001391  90.6600  97.1680 15.68011680  3653
STARLINK-35681          
1 66395U 25257R   25329.08336806 -.01948446  00000+0 -19502-1 0  9990
2 66395  53.1599 348.5145 0001430  91.9578  97.7868 15.68012680  3498
STARLINK-35669          
1 66396U 25257S   25329.08336806 -.01947259  00000+0 -19491-1 0  9999
2 66396  53.1597 348.5098 0001372  98.0020  93.6637 15.68010265  3653
STARLINK-35510          
1 66397U 25257T   25329.08336806 -.01950012  00000+0 -19518-1 0  9991
2 66397  53.1595 348.5058 0001426  94.8663  98.7123 15.68013886  3653
STARLINK-35642          
1 66398U 25257U   25329.08336806 -.01948901  00000+0 -19508-1 0  9995
2 66398  53.1597 348.5016 0001343  92.6391 102.8571 15.68012504  3652
STARLINK-35657          
1 66399U 25257V   25329.08336806 -.01947417  00000+0 -19488-1 0  9994
2 66399  53.1598 348.4977 0001495  93.3223 104.0864 15.68013894  3651
